     2.100          NAVIGATION                              RINEX VERSION / TYPE
fic2rin                                 08/19/2011 00:32:03 PGM / RUN BY / DATE
                                                            END OF HEADER
15 11  8 19  0  0  0.0 -.110149849206D-03  .170530256582D-11  .000000000000D+00
     .130000000000D+02 -.325937500000D+02  .478555648049D-08 -.197848069866D+01
    -.164471566677D-05  .353857316077D-02  .506080687046D-05  .515366401291D+04
     .432000000000D+06 -.223517417908D-07 -.298881005662D+00 -.931322574615D-08
     .949067107677D+00  .276812500000D+03 -.727249858590D-01 -.831463205208D-08
    -.270011247052D-09  .100000000000D+01  .164900000000D+04  .000000000000D+00
     .240000000000D+01  .000000000000D+00 -.102445483208D-07  .130000000000D+02
     .424806000000D+06  .400000000000D+01
17 11  8 19  0  0  0.0  .178684946150D-03 -.147792889038D-11  .000000000000D+00
     .230000000000D+02 -.493437500000D+02  .480341436720D-08 -.136916269951D+01
    -.247731804848D-05  .653531774879D-02  .666454434395D-05  .515356508446D+04
     .432000000000D+06  .121071934700D-06  .289335794059D+01  .130385160446D-07
     .961911418694D+00  .249968750000D+03 -.240036394274D+01 -.811462372094D-08
    -.117147736816D-09  .100000000000D+01  .164900000000D+04  .000000000000D+00
     .240000000000D+01  .000000000000D+00 -.107102096081D-07  .230000000000D+02
     .424806000000D+06  .400000000000D+01
18 11  8 19  0  0  0.0  .152963679284D-03  .193267624127D-11  .000000000000D+00
     .500000000000D+02  .649062500000D+02  .551522973146D-08  .117179559673D+00
     .352598726749D-05  .127496626228D-01  .473298132420D-05  .515361990356D+04
     .432000000000D+06 -.316649675369D-07 -.131224199802D+01  .221654772758D-06
     .931844196537D+00  .273281250000D+03 -.222508981562D+01 -.883036782026D-08
     .357157734196D-12  .100000000000D+01  .164900000000D+04  .000000000000D+00
     .240000000000D+01  .000000000000D+00 -.107102096081D-07  .500000000000D+02
     .424806000000D+06  .400000000000D+01
19 11  8 19  0  0  0.0 -.174435786903D-03 -.409272615798D-11  .000000000000D+00
     .118000000000D+03 -.539062500000D+02  .483591572101D-08 -.202063743340D+01
    -.302866101265D-05  .756203220226D-02  .747852027416D-05  .515368913460D+04
     .432000000000D+06  .000000000000D+00  .294713708256D+01 -.160187482834D-06
     .959414543764D+00  .236625000000D+03  .754788764782D-01 -.813926760459D-08
    -.141077305007D-09  .100000000000D+01  .164900000000D+04  .000000000000D+00
     .240000000000D+01  .000000000000D+00 -.144354999065D-07  .118000000000D+03
     .424806000000D+06  .400000000000D+01
20 11  8 19  0  0  0.0  .518760643899D-04  .454747350886D-12  .000000000000D+00
     .530000000000D+02  .743437500000D+02  .538343852754D-08  .511189737813D+00
     .388547778130D-05  .448699004482D-02  .576302409172D-05  .515361113548D+04
     .432000000000D+06 -.260770320892D-07 -.136615472782D+01  .167638063431D-07
     .932072890131D+00  .251812500000D+03  .127840905503D+01 -.867643283683D-08
     .803604901941D-10  .100000000000D+01  .164900000000D+04  .000000000000D+00
     .240000000000D+01  .000000000000D+00 -.745058059692D-08  .530000000000D+02
     .424806000000D+06  .400000000000D+01
21 11  8 19  0  0  0.0 -.165594741702D-03 -.250111042988D-11  .000000000000D+00
     .990000000000D+02  .231875000000D+02  .527557689181D-08  .124724163948D+01
     .142306089401D-05  .180650097318D-01  .108573585749D-04  .515373069954D+04
     .432000000000D+06 -.232830643654D-06 -.236593806881D+01  .225380063057D-06
     .931763743357D+00  .161593750000D+03 -.233725995612D+01 -.850821154402D-08
    -.204651381694D-09  .100000000000D+01  .164900000000D+04  .000000000000D+00
     .240000000000D+01  .000000000000D+00 -.116415321827D-07  .990000000000D+02
     .424806000000D+06  .400000000000D+01
22 11  8 19  0  0  0.0  .145281665027D-03 -.227373675443D-12  .000000000000D+00
     .104000000000D+03  .706250000000D+02  .549737184475D-08 -.715361350952D+00
     .358372926712D-05  .593013025355D-02  .463239848614D-05  .515370345116D+04
     .432000000000D+06 -.242143869400D-07 -.130827591739D+01  .800937414169D-07
     .929546552031D+00  .272250000000D+03 -.197859868885D+01 -.875000733007D-08
     .192865176466D-10  .100000000000D+01  .164900000000D+04  .000000000000D+00
     .340000000000D+01  .000000000000D+00 -.167638063431D-07  .104000000000D+03
     .424806000000D+06  .400000000000D+01
23 11  8 19  0  0  0.0  .282993074507D-03 -.295585778076D-11  .000000000000D+00
     .920000000000D+02 -.381875000000D+02  .450625913235D-08 -.249372599356D+01
    -.203214585781D-05  .755604752339D-02  .533461570740D-05  .515374171448D+04
     .432000000000D+06 -.102445483208D-06 -.267337681608D+00 -.372529029846D-07
     .963646212784D+00  .278812500000D+03 -.307822800570D+01 -.816212569958D-08
    -.307869966877D-09  .100000000000D+01  .164900000000D+04  .000000000000D+00
     .240000000000D+01  .000000000000D+00 -.200234353542D-07  .920000000000D+02
     .424806000000D+06  .400000000000D+01
25 11  8 19  0  0  0.0  .146096572280D-04  .181898940355D-11  .000000000000D+00
     .570000000000D+02  .216562500000D+02  .461554939902D-08  .365018586981D+00
     .895932316780D-06  .103600102011D-02  .592134892941D-05  .515360725021D+04
     .432000000000D+06 -.204890966415D-07  .180228226333D+01  .409781932831D-07
     .964772566078D+00  .269718750000D+03  .991219178635D+00 -.816141138411D-08
     .407516974718D-09  .100000000000D+01  .164900000000D+04  .000000000000D+00
     .240000000000D+01  .000000000000D+00  .558793544769D-08  .570000000000D+02
     .424806000000D+06  .400000000000D+01
26 11  8 19  0  0  0.0 -.128097366542D-03 -.125055521494D-10  .000000000000D+00
     .850000000000D+02 -.411562500000D+02  .378801492888D-08 -.272481746886D+01
    -.205822288990D-05  .203585490817D-01  .572390854359D-05  .515366013908D+04
     .432000000000D+06  .242143869400D-06 -.200674156370D+00 -.108033418655D-06
     .986670790776D+00  .280250000000D+03  .115887708066D+01 -.753317092966D-08
    -.233938315898D-09  .100000000000D+01  .164900000000D+04  .000000000000D+00
     .240000000000D+01  .000000000000D+00 -.605359673500D-08  .850000000000D+02
     .424806000000D+06  .400000000000D+01
27 11  8 19  0  0  0.0  .296249985695D-03  .386535248253D-11  .000000000000D+00
     .910000000000D+02 -.559375000000D+01  .366765277246D-08 -.176258483432D+01
     .115483999252D-06  .215922616189D-01  .968389213085D-05  .515364383888D+04
     .432000000000D+06 -.178813934326D-06  .723706113630D+00  .523403286934D-06
     .981518644923D+00  .206031250000D+03 -.121526566472D+01 -.767496255014D-08
     .110718897601D-09  .100000000000D+01  .164900000000D+04  .000000000000D+00
     .240000000000D+01  .630000000000D+02 -.419095158577D-08  .910000000000D+02
     .424806000000D+06  .400000000000D+01
28 11  8 19  0  0  0.0  .606244429946D-04  .295585778076D-11  .000000000000D+00
     .350000000000D+02  .108125000000D+02  .446697178159D-08 -.661239154694D+00
     .821426510811D-06  .171015455853D-01  .630132853985D-05  .515369950676D+04
     .432000000000D+06 -.152736902237D-06  .185814525603D+01  .217929482460D-06
     .975248695068D+00  .271531250000D+03 -.188239904509D+01 -.831356057888D-08
     .432875173846D-09  .100000000000D+01  .164900000000D+04  .000000000000D+00
     .240000000000D+01  .000000000000D+00 -.102445483208D-07  .350000000000D+02
     .424806000000D+06  .400000000000D+01
29 11  8 19  0  0  0.0  .232465099543D-03  .306954461848D-11  .000000000000D+00
     .300000000000D+01 -.515312500000D+02  .479448542385D-08  .144447568400D+01
    -.262074172497D-05  .234079989605D-02  .694207847118D-05  .515374209023D+04
     .432000000000D+06  .260770320892D-07  .290177390203D+01 -.521540641785D-07
     .962377925715D+00  .249906250000D+03 -.116710734367D+01 -.810176604250D-08
    -.183221917643D-09  .100000000000D+01  .164900000000D+04  .000000000000D+00
     .240000000000D+01  .000000000000D+00 -.931322574615D-08  .300000000000D+01
     .424806000000D+06  .400000000000D+01
30 11  8 19  0  0  0.0  .931988470256D-04 -.227373675443D-11  .000000000000D+00
     .430000000000D+02  .246250000000D+02  .480162857853D-08 -.124171456674D+00
     .104680657387D-05  .117523276713D-01  .638142228127D-05  .515543624687D+04
     .432000000000D+06 -.216066837311D-06  .171379706790D+01  .633299350739D-07
     .956037460283D+00  .257718750000D+03  .156687757595D+01 -.840606443204D-08
     .452518849226D-09  .100000000000D+01  .164900000000D+04  .000000000000D+00
     .340000000000D+01  .000000000000D+00 -.419095158577D-08  .430000000000D+02
     .424806000000D+06  .400000000000D+01
31 11  8 19  0  0  0.0  .128419604152D-03  .557065504836D-11  .000000000000D+00
     .890000000000D+02 -.176875000000D+02  .364229457333D-08  .214531611742D+01
    -.804662704468D-06  .760985119268D-02  .104065984488D-04  .515372330856D+04
     .432000000000D+06  .521540641785D-07  .779286751438D+00  .819563865662D-07
     .980197224669D+00  .186156250000D+03 -.952215882311D+00 -.753067082552D-08
     .682171272315D-10  .100000000000D+01  .164900000000D+04  .000000000000D+00
     .240000000000D+01  .000000000000D+00 -.130385160446D-07  .890000000000D+02
     .424806000000D+06  .400000000000D+01
32 11  8 19  0  0  0.0 -.313041731715D-03 -.682121026330D-11  .000000000000D+00
     .290000000000D+02  .750937500000D+02  .483341561688D-08  .285728973631D+01
     .385567545891D-05  .121772404527D-01  .492855906487D-05  .515359960175D+04
     .432000000000D+06  .353902578354D-07 -.123954711902D+01  .210478901863D-06
     .953771012505D+00  .279093750000D+03 -.751927694932D+00 -.818998400285D-08
     .335728270144D-10  .100000000000D+01  .164900000000D+04  .000000000000D+00
     .240000000000D+01  .000000000000D+00 -.279396772385D-08  .290000000000D+02
     .424806000000D+06  .400000000000D+01
